{
    "links": {
        "self": "http://www.neowsapp.com/rest/v1/neo/3698473?api_key=iIulBulltgU6a56xZRHN4H3l9WmuAYTsLGpBGhQ2"
    },
    "id": "3698473",
    "neo_reference_id": "3698473",
    "name": "(2014 WB201)",
    "designation": "2014 WB201",
    "nasa_jpl_url": "http://ssd.jpl.nasa.gov/sbdb.cgi?sstr=3698473",
    "absolute_magnitude_h": 24.0,
    "estimated_diameter": {
        "kilometers": {
            "estimated_diameter_min": 0.0421264611,
            "estimated_diameter_max": 0.0941976306
        },
        "meters": {
            "estimated_diameter_min": 42.1264610556,
            "estimated_diameter_max": 94.1976305719
        },
        "miles": {
            "estimated_diameter_min": 0.0261761612,
            "estimated_diameter_max": 0.0585316759
        },
        "feet": {
            "estimated_diameter_min": 138.2101784897,
            "estimated_diameter_max": 309.0473542854
        }
    },
    "is_potentially_hazardous_asteroid": false,
    "close_approach_data": [
        {
            "close_approach_date": "2014-11-11",
            "close_approach_date_full": "2014-Nov-11 00:16",
            "epoch_date_close_approach": 1415664960000,
            "relative_velocity": {
                "kilometers_per_second": "9.8610056436",
                "kilometers_per_hour": "35499.6203168029",
                "miles_per_hour": "22058.0835240712"
            },
            "miss_distance": {
                "astronomical": "0.0924335227",
                "lunar": "35.9566403303",
                "kilometers": "13827858.112516649",
                "miles": "8592232.6039977962"
            },
            "orbiting_body": "Earth"
        },
        {
            "close_approach_date": "2017-11-23",
            "close_approach_date_full": "2017-Nov-23 23:13",
            "epoch_date_close_approach": 1511478780000,
            "relative_velocity": {
                "kilometers_per_second": "14.3049882923",
                "kilometers_per_hour": "51497.9578521306",
                "miles_per_hour": "31998.828310953"
            },
            "miss_distance": {
                "astronomical": "0.2330149537",
                "lunar": "90.6428169893",
                "kilometers": "34858540.751668619",
                "miles": "21660092.8312361822"
            },
            "orbiting_body": "Earth"
        }
    ],
    "orbital_data": {
        "orbit_id": "5",
        "orbit_determination_date": "2017-04-06 08:37:17",
        "first_observation_date": "2014-11-22",
        "last_observation_date": "2014-12-12",
        "data_arc_in_days": 20,
        "observations_used": 16,
        "orbit_uncertainty": "7",
        "minimum_orbit_intersection": ".0582315",
        "jupiter_tisserand_invariant": "3.566",
        "epoch_osculation": "2459000.5",
        "eccentricity": ".5115447447892922",
        "semi_major_axis": "2.092086599111979",
        "inclination": "7.999926766180528",
        "ascending_node_longitude": "234.1868874264494",
        "orbital_period": "1105.268806438215",
        "perihelion_distance": "1.021890693692143",
        "perihelion_argument": "148.0475511817334",
        "aphelion_distance": "3.162282504531815",
        "perihelion_time": "2459162.487156993621",
        "mean_anomaly": "307.2387385059495",
        "mean_motion": ".3257126211316126",
        "equinox": "J2000",
        "orbit_class": {
            "orbit_class_type": "AMO",
            "orbit_class_description": "Near-Earth asteroid orbits similar to that of 1221 Amor",
            "orbit_class_range": "1.017 AU < q (perihelion) < 1.3 AU"
        }
    },
    "is_sentry_object": false
}